NORAD_CAT_ID,OBJECT_NAME,OBJECT_TYPE,EPOCH,MEAN_MOTION,ECCENTRICITY,INCLINATION,RA_OF_ASC_NODE,ARG_OF_PERICENTER,MEAN_ANOMALY,BSTAR,MEAN_MOTION_DOT,MEAN_MOTION_DDOT,TLE_LINE0,TLE_LINE1,TLE_LINE2,SEMIMAJOR_AXIS,PERIOD,APOGEE,PERIGEE,DECAYED
53820.0,STARLINK-4758,PAYLOAD,2023-11-12 18:52:02,15.088406,0.0001255,53.2167,150.7287,87.6718,272.4418,7.7232e-05,9.42e-06,0.0,0 STARLINK-4758,1 53820U 22114C   23316.78614059  .00000942  00000-0  77232-4 0  9993,2 53820  53.2167 150.7287 0001255  87.6718 272.4418 15.08840600 64284,6917.879,95.438,540.612,538.875,0.0
53820.0,STARLINK-4758,PAYLOAD,2023-11-12 22:02:48,15.08841603,0.0001326,53.2172,150.1345,89.6973,270.4171,7.4518e-05,8.98e-06,0.0,0 STARLINK-4758,1 53820U 22114C   23316.91861943  .00000898  00000-0  74518-4 0  9998,2 53820  53.2172 150.1345 0001326  89.6973 270.4171 15.08841603 64843,6917.875,95.437,540.658,538.823,0.0
53820.0,STARLINK-4758,PAYLOAD,2023-11-12 23:38:11,15.08841921,0.0001315,53.2171,149.837,89.4727,270.6416,7.4091e-05,8.92e-06,0.0,0 STARLINK-4758,1 53820U 22114C   23316.98485906  .00000892  00000-0  74091-4 0  9996,2 53820  53.2171 149.8370 0001315  89.4727 270.6416 15.08841921 64856,6917.875,95.437,540.649,538.83,0.0
53820.0,STARLINK-4758,PAYLOAD,2023-11-14 12:12:01,15.08860344,0.0001219,53.2168,142.9981,90.9985,269.1147,0.00025198,3.727e-05,0.0,0 STARLINK-4758,1 53820U 22114C   23318.50835477  .00003727  00000-0  25198-3 0  9991,2 53820  53.2168 142.9981 0001219  90.9985 269.1147 15.08860344 64540,6917.818,95.436,540.526,538.84,0.0
53820.0,STARLINK-4758,PAYLOAD,2023-11-14 18:33:36,15.08838047,0.0001254,53.2163,141.8089,96.4225,263.691,-3.1909e-06,-3.39e-06,0.0,0 STARLINK-4758,1 53820U 22114C   23318.77333359 -.00000339  00000-0 -31909-5 0  9999,2 53820  53.2163 141.8089 0001254  96.4225 263.6910 15.08838047 64585,6917.886,95.438,540.619,538.884,0.0
53820.0,STARLINK-4758,PAYLOAD,2023-11-15 12:02:50,15.08834092,0.0001118,53.2147,138.5366,109.6784,250.4329,-0.0001993,-3.458e-05,0.0,0 STARLINK-4758,1 53820U 22114C   23319.50196801 -.00003458  00000-0 -19930-3 0  9993,2 53820  53.2147 138.5366 0001118 109.6784 250.4329 15.08834092 65231,6917.898,95.438,540.537,538.99,0.0
53820.0,STARLINK-4758,PAYLOAD,2023-11-15 18:24:23,15.08890677,0.0001479,53.2167,137.3501,71.4043,288.711,-0.00085767,-0.00013931,0.0,0 STARLINK-4758,1 53820U 22114C   23319.76694206 -.00013931  00000-0 -85767-3 0  9991,2 53820  53.2167 137.3501 0001479  71.4043 288.7110 15.08890677 64732,6917.725,95.434,540.614,538.567,0.0
53820.0,STARLINK-4758,PAYLOAD,2023-11-16 11:53:36,15.08879687,0.0001202,53.2165,134.0773,78.882,281.2308,-0.00075531,-0.00012301,0.0,0 STARLINK-4758,1 53820U 22114C   23320.49556218 -.00012301  00000-0 -75531-3 0  9991,2 53820  53.2165 134.0773 0001202  78.8820 281.2308 15.08879687 65380,6917.759,95.435,540.456,538.793,0.0
53820.0,STARLINK-4758,PAYLOAD,2023-11-16 21:25:57,15.08826854,0.000132,53.2162,132.2935,93.34,266.7744,0.00011325,1.514e-05,0.0,0 STARLINK-4758,1 53820U 22114C   23320.89302197  .00001514  00000-0  11325-3 0  9993,2 53820  53.2162 132.2935 0001320  93.3400 266.7744 15.08826854 65441,6917.921,95.438,540.699,538.872,0.0
53820.0,STARLINK-4758,PAYLOAD,2023-11-17 02:12:06,15.08827337,0.0001197,53.2178,131.4003,96.2833,263.8295,0.00015275,2.143e-05,0.0,0 STARLINK-4758,1 53820U 22114C   23321.09174269  .00002143  00000-0  15275-3 0  9990,2 53820  53.2178 131.4003 0001197  96.2833 263.8295 15.08827337 64938,6917.919,95.438,540.612,538.956,0.0
53820.0,STARLINK-4758,PAYLOAD,2023-11-17 11:44:26,15.08816803,0.0001323,53.2174,129.6172,94.314,265.8003,5.781e-05,6.32e-06,0.0,0 STARLINK-4758,1 53820U 22114C   23321.48919777  .00000632  00000-0  57810-4 0  9997,2 53820  53.2174 129.6172 0001323  94.3140 265.8003 15.08816803 64992,6917.951,95.439,540.732,538.901,0.0
53820.0,STARLINK-4758,PAYLOAD,2023-11-17 18:05:59,15.08817031,0.0001343,53.2173,128.4278,90.4454,269.6692,5.8258e-05,6.39e-06,0.0,0 STARLINK-4758,1 53820U 22114C   23321.75416182  .00000639  00000-0  58258-4 0  9993,2 53820  53.2173 128.4278 0001343  90.4454 269.6692 15.08817031 65577,6917.951,95.439,540.745,538.887,0.0
53820.0,STARLINK-4758,PAYLOAD,2023-11-18 11:35:12,15.0884343,0.0001649,53.2173,125.1567,95.6132,264.5048,0.00021336,3.11e-05,0.0,0 STARLINK-4758,1 53820U 22114C   23322.48278485  .00003110  00000-0  21336-3 0  9999,2 53820  53.2173 125.1567 0001649  95.6132 264.5048 15.08843430 65145,6917.87,95.437,540.876,538.594,0.0
53820.0,STARLINK-4758,PAYLOAD,2023-11-18 17:56:44,15.08851281,0.0001194,53.2174,123.9671,81.9279,278.1848,0.00026998,4.013e-05,0.0,0 STARLINK-4758,1 53820U 22114C   23322.74773831  .00004013  00000-0  26998-3 0  9995,2 53820  53.2174 123.9671 0001194  81.9279 278.1848 15.08851281 65729,6917.846,95.437,540.537,538.885,0.0
53820.0,STARLINK-4758,PAYLOAD,2023-11-19 09:50:36,15.08843363,0.0001618,53.2181,120.9927,83.0993,277.0183,0.00014146,1.964e-05,0.0,0 STARLINK-4758,1 53820U 22114C   23323.41014602  .00001964  00000-0  14146-3 0  9998,2 53820  53.2181 120.9927 0001618  83.0993 277.0183 15.08843363 65288,6917.87,95.437,540.854,538.616,0.0
53820.0,STARLINK-4758,PAYLOAD,2023-11-19 17:47:32,15.08834549,0.0001278,53.2184,119.5084,81.6929,278.4208,0.00015915,2.246e-05,0.0,0 STARLINK-4758,1 53820U 22114C   23323.74135024  .00002246  00000-0  15915-3 0  9995,2 53820  53.2184 119.5084 0001278  81.6929 278.4208 15.08834549 65339,6917.897,95.438,540.646,538.878,0.0
53820.0,STARLINK-4758,PAYLOAD,2023-11-19 20:58:18,15.08837392,0.0001228,53.2192,118.9132,79.2332,280.8799,0.00016828,2.391e-05,0.0,0 STARLINK-4758,1 53820U 22114C   23323.87382809  .00002391  00000-0  16828-3 0  9999,2 53820  53.2192 118.9132 0001228  79.2332 280.8799 15.08837392 65893,6917.888,95.438,540.603,538.904,0.0
53820.0,STARLINK-4758,PAYLOAD,2023-11-20 14:27:32,15.08844277,0.0001761,53.2186,115.6423,98.1619,261.9573,2.8134e-05,1.6e-06,0.0,0 STARLINK-4758,1 53820U 22114C   23324.60246444  .00000160  00000-0  28134-4 0  9991,2 53820  53.2186 115.6423 0001761  98.1619 261.9573 15.08844277 66007,6917.867,95.437,540.951,538.514,0.0
53820.0,STARLINK-4758,PAYLOAD,2023-11-20 17:38:18,15.08849831,0.0001373,53.2183,115.0478,81.511,278.6037,-3.252e-05,-8.06e-06,0.0,0 STARLINK-4758,1 53820U 22114C   23324.73494181 -.00000806  00000-0 -32520-4 0  9991,2 53820  53.2183 115.0478 0001373  81.5110 278.6037 15.08849831 65481,6917.85,95.437,540.665,538.766,0.0
53820.0,STARLINK-4758,PAYLOAD,2023-11-20 20:49:04,15.08852003,0.0001103,53.2178,114.4513,71.1161,288.9951,-3.3429e-05,-8.2e-06,0.0,0 STARLINK-4758,1 53820U 22114C   23324.86741890 -.00000820  00000-0 -33429-4 0  9992,2 53820  53.2178 114.4513 0001103  71.1161 288.9951 15.08852003 66047,6917.844,95.437,540.472,538.946,0.0
53820.0,STARLINK-4758,PAYLOAD,2023-11-21 11:07:33,15.08837288,0.0001117,53.2183,111.7761,88.7116,271.4004,1.8252e-05,3e-08,0.0,0 STARLINK-4758,1 53820U 22114C   23325.46358565  .00000003  00000-0  18252-4 0  9990,2 53820  53.2183 111.7761 0001117  88.7116 271.4004 15.08837288 65590,6917.889,95.438,540.526,538.981,0.0
53820.0,STARLINK-4758,PAYLOAD,2023-11-21 17:29:05,15.08845427,0.0001299,53.2177,110.5857,86.6535,273.4606,7.5497e-05,9.14e-06,0.0,0 STARLINK-4758,1 53820U 22114C   23325.72853976  .00000914  00000-0  75497-4 0  9990,2 53820  53.2177 110.5857 0001299  86.6535 273.4606 15.08845427 66178,6917.864,95.437,540.627,538.83,0.0
53820.0,STARLINK-4758,PAYLOAD,2023-11-22 14:09:06,15.08848811,0.0001337,53.2184,106.7209,87.4318,272.6827,0.00012391,1.685e-05,0.0,0 STARLINK-4758,1 53820U 22114C   23326.58965615  .00001685  00000-0  12391-3 0  9998,2 53820  53.2184 106.7209 0001337  87.4318 272.6827 15.08848811 66306,6917.853,95.437,540.643,538.794,0.0
53820.0,STARLINK-4758,PAYLOAD,2023-11-22 15:44:29,15.08850474,0.0001425,53.2174,106.4236,85.6706,274.4449,0.00016953,2.412e-05,0.0,0 STARLINK-4758,1 53820U 22114C   23326.65589651  .00002412  00000-0  16953-3 0  9995,2 53820  53.2174 106.4236 0001425  85.6706 274.4449 15.08850474 66310,6917.848,95.437,540.699,538.728,0.0
53820.0,STARLINK-4758,PAYLOAD,2023-11-23 09:13:44,15.08834381,0.0001371,53.2171,103.1516,97.3304,262.7844,4.8019e-05,4.76e-06,0.0,0 STARLINK-4758,1 53820U 22114C   23327.38454632  .00000476  00000-0  48019-4 0  9993,2 53820  53.2171 103.1516 0001371  97.3304 262.7844 15.08834381 65885,6917.898,95.438,540.711,538.814,0.0
53820.0,STARLINK-4758,PAYLOAD,2023-11-23 13:59:54,15.08831766,0.0001307,53.2177,102.2607,88.4198,271.6944,-1.9982e-05,-6.06e-06,0.0,0 STARLINK-4758,1 53820U 22114C   23327.58326905 -.00000606  00000-0 -19982-4 0  9990,2 53820  53.2177 102.2607 0001307  88.4198 271.6944 15.08831766 66451,6917.906,95.438,540.675,538.866,0.0
53820.0,STARLINK-4758,PAYLOAD,2023-11-23 15:35:17,15.08832733,0.0001373,53.2173,101.9629,88.4695,271.6454,-2.6501e-05,-7.1e-06,0.0,0 STARLINK-4758,1 53820U 22114C   23327.64950885 -.00000710  00000-0 -26501-4 0  9998,2 53820  53.2173 101.9629 0001373  88.4695 271.6454 15.08832733 66464,6917.903,95.438,540.717,538.818,0.0
53820.0,STARLINK-4758,PAYLOAD,2023-11-24 12:15:18,15.08839775,0.0001435,53.2172,98.0966,99.0356,261.0799,8.8793e-05,1.125e-05,0.0,0 STARLINK-4758,1 53820U 22114C   23328.51062925  .00001125  00000-0  88793-4 0  9994,2 53820  53.2172  98.0966 0001435  99.0356 261.0799 15.08839775 66057,6917.881,95.438,540.739,538.753,0.0
53820.0,STARLINK-4758,PAYLOAD,2023-11-24 13:50:41,15.0884335,0.0001446,53.2176,97.7988,96.2021,263.9136,0.00010051,1.312e-05,0.0,0 STARLINK-4758,1 53820U 22114C   23328.57686790  .00001312  00000-0  10051-3 0  9991,2 53820  53.2176  97.7988 0001446  96.2021 263.9136 15.08843350 66602,6917.87,95.437,540.735,538.735,0.0
53820.0,STARLINK-4758,PAYLOAD,2023-11-24 15:26:04,15.08844915,0.000152,53.218,97.5014,98.4817,261.6348,0.0001345,1.854e-05,0.0,0 STARLINK-4758,1 53820U 22114C   23328.64310730  .00001854  00000-0  13450-3 0  9994,2 53820  53.2180  97.5014 0001520  98.4817 261.6348 15.08844915 66614,6917.865,95.437,540.782,538.679,0.0
